INTELSAT 902 (IS-902)   
1 26900U 01039A   26171.16820361 -.00000290  00000+0  00000+0 0  9994
2 26900   6.1243  71.7474 0004280  14.2873 192.7993  1.00270935 90729
INTELSAT 904 (IS-904)   
1 27380U 02007A   26170.10252515 -.00000234  00000+0  00000+0 0  9994
2 27380   6.9257  69.1626 0006550   6.6050 196.9688  1.00270224 51780
DIRECTV 5 (TEMPO 1)     
1 27426U 02023A   26171.22764216 -.00000063  00000+0  00000+0 0  9993
2 27426   4.8866  75.2740 0003228  15.9063 149.0979  1.00271966 88152
INTELSAT 905 (IS-905)   
1 27438U 02027A   26171.26588116  .00000087  00000+0  00000+0 0  9992
2 27438   6.7622  69.7648 0003972  23.6141 133.6003  1.00272868 51395
GALAXY 3C (G-3C)        
1 27445U 02030A   26171.23030740 -.00000158  00000+0  00000+0 0  9996
2 27445   3.7409  77.9381 0001681  28.7359 149.8293  1.00271501 46522
INTELSAT 906 (IS-906)   
1 27513U 02041A   26171.19082373  .00000006  00000+0  00000+0 0  9999
2 27513   5.8098  72.8851 0004435   0.9940 327.3730  1.00270726 87059
GALAXY 13 (HORIZONS-1)  
1 27954U 03044A   26171.27049338  .00000127  00000+0  00000+0 0  9999
2 27954   1.4268  83.8254 0002190 357.9705 134.0537  1.00272406 46609
INTELSAT 10-02          
1 28358U 04022A   26171.24919683 -.00000016  00000+0  00000+0 0  9999
2 28358   0.0167 305.3086 0000089 153.8964 257.9568  1.00270641 80584
DIRECTV 8               
1 28659U 05019A   26171.22582215 -.00000004  00000+0  00000+0 0  9992
2 28659   0.0033 104.7102 0003042 349.7436 136.2227  1.00271856 77106
GALAXY 28 (G-28)        
1 28702U 05022A   26171.24408347 -.00000206  00000+0  00000+0 0  9994
2 28702   3.3059  78.8967 0002815  10.7742 239.5729  1.00270770 52001
GALAXY 16 (G-16)        
1 29236U 06023A   26171.23030740 -.00000132  00000+0  00000+0 0  9994
2 29236   0.0398 169.8991 0002584 277.5805 164.8705  1.00271593 73009
DIRECTV 9S              
1 29494U 06043A   26171.23030740 -.00000119  00000+0  00000+0 0  9997
2 29494   2.4297  80.8694 0005065  14.5132 154.7712  1.00271211 51414
GALAXY 17 (G-17)        
1 31307U 07016B   26171.22475840 -.00000212  00000+0  00000+0 0  9991
2 31307   2.9809  79.8648 0004768  19.8468 164.6257  1.00271467 69832
INTELSAT 11 (IS-11)     
1 32253U 07044B   26171.05797054 -.00000176  00000+0  00000+0 0  9997
2 32253   3.5740  78.6372 0002522  87.4130 236.3380  0.99049599 68477
HORIZONS-2              
1 32388U 07063B   26171.21919773 -.00000259  00000+0  00000+0 0  9991
2 32388   2.6109  80.5906 0003914   0.0151 192.9277  1.00272862 67846
DIRECTV 11              
1 32729U 08013A   26170.94465848 -.00000131  00000+0  00000+0 0  9993
2 32729   0.0260 219.1273 0000180 197.2081  92.7255  1.00271356 45627
GALAXY 18 (G-18)        
1 32951U 08024A   26171.18369637  .00000020  00000+0  00000+0 0  9994
2 32951   0.0224  69.3084 0002910  18.0126 124.2027  1.00271265 45887
INTELSAT 25 (IS-25)     
1 33153U 08034A   26171.02822510 -.00000145  00000+0  00000+0 0  9996
2 33153   2.7184  80.3416 0003568  60.6156 246.4450  0.99033595 65714
GALAXY 19 (G-19)        
1 33376U 08045A   26171.23030740 -.00000144  00000+0  00000+0 0  9993
2 33376   0.0283 264.0244 0002615 191.2069 159.1235  1.00271246 64932
FM-5                    
1 35493U 09034A   26171.22475840 -.00000205  00000+0  00000+0 0  9995
2 35493   0.0208 292.0003 0000803  26.7697 304.4171  1.00270626 46677
INTELSAT 14 (IS-14)     
1 36097U 09064A   26171.24648492 -.00000278  00000+0  00000+0 0  9996
2 36097   0.0169 335.0088 0002391 113.2919 223.8992  1.00271568 60631
INTELSAT 15 (IS-15)     
1 36106U 09067A   26171.12368350 -.00000190  00000+0  00000+0 0  9992
2 36106   0.0162 350.1082 0002191  99.5887 308.3134  1.00272135 41250
DIRECTV 12              
1 36131U 09075A   26171.12368068 -.00000108  00000+0  00000+0 0  9994
2 36131   0.0333 172.6604 0000305 302.1866  95.2890  1.00271840 46584
INTELSAT 16 (IS-16)     
1 36397U 10006A   26171.21919773 -.00000250  00000+0  00000+0 0  9997
2 36397   0.0097 354.1761 0002046 108.9887 167.9735  1.00272128 59685
XM-5                    
1 37185U 10053A   26171.22660215 -.00000028  00000+0  00000+0 0  9993
2 37185   0.0614 272.5828 0002709 288.0759  34.1615  1.00272771 57513
INTELSAT 17 (IS-17)     
1 37238U 10065B   26171.11987015  .00000000  00000+0  00000+0 0  9992
2 37238   0.0284  75.9071 0002882  37.4497 264.1087  1.00272388 53278
INTELSAT 28 (IS-28)     
1 37392U 11016A   26171.24313013 -.00000230  00000+0  00000+0 0  9991
2 37392   1.8152  82.5875 0003713   7.6488 234.0259  1.00271271 53313
INTELSAT 18 (IS-18)     
1 37834U 11056A   26171.20600203  .00000048  00000+0  00000+0 0  9998
2 37834   0.0340 273.9063 0001810 176.0990  72.5638  1.00271619 53844
INTELSAT 22 (IS-22)     
1 38098U 12011A   26171.12108348 -.00000064  00000+0  00000+0 0  9996
2 38098   0.0171  45.5904 0001527  48.4726 289.9693  1.00272471  7212
INTELSAT 19 (IS-19)     
1 38356U 12030A   26171.26907971 -.00000061  00000+0  00000+0 0  9995
2 38356   0.0148  24.9958 0003024  72.0981  74.2480  1.00271773 50483
INTELSAT 20 (IS-20)     
1 38740U 12043A   26171.12039015 -.00000029  00000+0  00000+0 0  9990
2 38740   0.0039  46.4098 0001414 136.2418 197.5287  1.00270298 50779
